LEMUR-1                 
1 40044U 14033AL  17345.69181285  .00000207  00000-0  38271-4 0  9997
2 40044  97.8323 224.2377 0060681  84.2358 276.5765 14.73896161186979
